[
    {
       "CCSDS_OMM_VERS":"2.0",
       "COMMENT":"GENERATED VIA SPACE-TRACK.ORG API",
       "CREATION_DATE":"2022-04-17T19:06:10",
       "ORIGINATOR":"18 SPCS",
       "OBJECT_NAME":"STARLINK-3662",
       "OBJECT_ID":"2022-029M",
       "CENTER_NAME":"EARTH",
       "REF_FRAME":"TEME",
       "TIME_SYSTEM":"UTC",
       "MEAN_ELEMENT_THEORY":"SGP4",
       "EPOCH":"2022-04-17T17:49:15.800736",
       "MEAN_MOTION":"16.35755345",
       "ECCENTRICITY":"0.00029590",
       "INCLINATION":"53.2004",
       "RA_OF_ASC_NODE":"353.8470",
       "ARG_OF_PERICENTER":"291.4410",
       "MEAN_ANOMALY":"183.8232",
       "EPHEMERIS_TYPE":"0",
       "CLASSIFICATION_TYPE":"U",
       "NORAD_CAT_ID":"52099",
       "ELEMENT_SET_NO":"999",
       "REV_AT_EPOCH":"596",
       "BSTAR":"0.00010000000000",
       "MEAN_MOTION_DOT":"0.00835551",
       "MEAN_MOTION_DDOT":"0.0000122310000",
       "SEMIMAJOR_AXIS":"6555.255",
       "PERIOD":"88.033",
       "APOAPSIS":"179.060",
       "PERIAPSIS":"175.181",
       "OBJECT_TYPE":"PAYLOAD",
       "RCS_SIZE":"LARGE",
       "COUNTRY_CODE":"US",
       "LAUNCH_DATE":"2022-03-19",
       "SITE":"AFETR",
       "DECAY_DATE":"2022-04-17",
       "FILE":"3405599",
       "GP_ID":"201469004",
       "TLE_LINE0":"0 STARLINK-3662",
       "TLE_LINE1":"1 52099U 22029M   22107.74254399  .00835551  12231-4  10000-3 0  9999",
       "TLE_LINE2":"2 52099  53.2004 353.8470 0002959 291.4410 183.8232 16.35755345  5968"
    },
    {
       "CCSDS_OMM_VERS":"2.0",
       "COMMENT":"GENERATED VIA SPACE-TRACK.ORG API",
       "CREATION_DATE":"2022-04-18T20:36:11",
       "ORIGINATOR":"18 SPCS",
       "OBJECT_NAME":"STARLINK-3693",
       "OBJECT_ID":"2022-029S",
       "CENTER_NAME":"EARTH",
       "REF_FRAME":"TEME",
       "TIME_SYSTEM":"UTC",
       "MEAN_ELEMENT_THEORY":"SGP4",
       "EPOCH":"2022-04-18T19:01:58.746720",
       "MEAN_MOTION":"16.44846564",
       "ECCENTRICITY":"0.00073830",
       "INCLINATION":"53.2004",
       "RA_OF_ASC_NODE":"348.5273",
       "ARG_OF_PERICENTER":"281.3791",
       "MEAN_ANOMALY":"79.1178",
       "EPHEMERIS_TYPE":"0",
       "CLASSIFICATION_TYPE":"U",
       "NORAD_CAT_ID":"52104",
       "ELEMENT_SET_NO":"999",
       "REV_AT_EPOCH":"613",
       "BSTAR":"0.00067950000000",
       "MEAN_MOTION_DOT":"0.23631584",
       "MEAN_MOTION_DDOT":"0.0000125080000",
       "SEMIMAJOR_AXIS":"6531.079",
       "PERIOD":"87.546",
       "APOAPSIS":"157.766",
       "PERIAPSIS":"148.122",
       "OBJECT_TYPE":"PAYLOAD",
       "RCS_SIZE":"LARGE",
       "COUNTRY_CODE":"US",
       "LAUNCH_DATE":"2022-03-19",
       "SITE":"AFETR",
       "DECAY_DATE":"2022-04-18",
       "FILE":"3406966",
       "GP_ID":"201549087",
       "TLE_LINE0":"0 STARLINK-3693",
       "TLE_LINE1":"1 52104U 22029S   22108.79304105  .23631584  12508-4  67950-3 0  9991",
       "TLE_LINE2":"2 52104  53.2004 348.5273 0007383 281.3791  79.1178 16.44846564  6133"
    },
    {
       "CCSDS_OMM_VERS":"2.0",
       "COMMENT":"GENERATED VIA SPACE-TRACK.ORG API",
       "CREATION_DATE":"2022-04-16T17:36:11",
       "ORIGINATOR":"18 SPCS",
       "OBJECT_NAME":"STARLINK-3719",
       "OBJECT_ID":"2022-029AS",
       "CENTER_NAME":"EARTH",
       "REF_FRAME":"TEME",
       "TIME_SYSTEM":"UTC",
       "MEAN_ELEMENT_THEORY":"SGP4",
       "EPOCH":"2022-04-16T17:15:28.857600",
       "MEAN_MOTION":"16.52125706",
       "ECCENTRICITY":"0.00201700",
       "INCLINATION":"53.1843",
       "RA_OF_ASC_NODE":"358.8528",
       "ARG_OF_PERICENTER":"151.6763",
       "MEAN_ANOMALY":"312.2835",
       "EPHEMERIS_TYPE":"0",
       "CLASSIFICATION_TYPE":"U",
       "NORAD_CAT_ID":"52128",
       "ELEMENT_SET_NO":"999",
       "REV_AT_EPOCH":"580",
       "BSTAR":"0.00053839000000",
       "MEAN_MOTION_DOT":"0.81851771",
       "MEAN_MOTION_DDOT":"0.0000124390000",
       "SEMIMAJOR_AXIS":"6511.881",
       "PERIOD":"87.160",
       "APOAPSIS":"146.880",
       "PERIAPSIS":"120.611",
       "OBJECT_TYPE":"PAYLOAD",
       "RCS_SIZE":"LARGE",
       "COUNTRY_CODE":"US",
       "LAUNCH_DATE":"2022-03-19",
       "SITE":"AFETR",
       "DECAY_DATE":"2022-04-16",
       "FILE":"3404320",
       "GP_ID":"201388321",
       "TLE_LINE0":"0 STARLINK-3719",
       "TLE_LINE1":"1 52128U 22029AS  22106.71908400  .81851771  12439-4  53839-3 0  9995",
       "TLE_LINE2":"2 52128  53.1843 358.8528 0020170 151.6763 312.2835 16.52125706  5804"
    },
    {
       "CCSDS_OMM_VERS":"2.0",
       "COMMENT":"GENERATED VIA SPACE-TRACK.ORG API",
       "CREATION_DATE":"2022-04-17T16:36:11",
       "ORIGINATOR":"18 SPCS",
       "OBJECT_NAME":"STARLINK-3710",
       "OBJECT_ID":"2022-029AU",
       "CENTER_NAME":"EARTH",
       "REF_FRAME":"TEME",
       "TIME_SYSTEM":"UTC",
       "MEAN_ELEMENT_THEORY":"SGP4",
       "EPOCH":"2022-04-17T16:07:48.016992",
       "MEAN_MOTION":"16.47513577",
       "ECCENTRICITY":"0.00015340",
       "INCLINATION":"53.1946",
       "RA_OF_ASC_NODE":"354.1322",
       "ARG_OF_PERICENTER":"256.4623",
       "MEAN_ANOMALY":"203.8052",
       "EPHEMERIS_TYPE":"0",
       "CLASSIFICATION_TYPE":"U",
       "NORAD_CAT_ID":"52130",
       "ELEMENT_SET_NO":"999",
       "REV_AT_EPOCH":"595",
       "BSTAR":"0.00105600000000",
       "MEAN_MOTION_DOT":"0.56332272",
       "MEAN_MOTION_DDOT":"0.0000125530000",
       "SEMIMAJOR_AXIS":"6524.028",
       "PERIOD":"87.404",
       "APOAPSIS":"146.894",
       "PERIAPSIS":"144.893",
       "OBJECT_TYPE":"PAYLOAD",
       "RCS_SIZE":"LARGE",
       "COUNTRY_CODE":"US",
       "LAUNCH_DATE":"2022-03-19",
       "SITE":"AFETR",
       "DECAY_DATE":"2022-04-17",
       "FILE":"3405587",
       "GP_ID":"201443396",
       "TLE_LINE0":"0 STARLINK-3710",
       "TLE_LINE1":"1 52130U 22029AU  22107.67208353  .56332272  12553-4  10560-2 0  9996",
       "TLE_LINE2":"2 52130  53.1946 354.1322 0001534 256.4623 203.8052 16.47513577  5957"
    },
    {
       "CCSDS_OMM_VERS":"2.0",
       "COMMENT":"GENERATED VIA SPACE-TRACK.ORG API",
       "CREATION_DATE":"2022-04-07T20:46:13",
       "ORIGINATOR":"18 SPCS",
       "OBJECT_NAME":"CZ-11 R\/B",
       "OBJECT_ID":"2022-032B",
       "CENTER_NAME":"EARTH",
       "REF_FRAME":"TEME",
       "TIME_SYSTEM":"UTC",
       "MEAN_ELEMENT_THEORY":"SGP4",
       "EPOCH":"2022-04-07T20:28:12.484128",
       "MEAN_MOTION":"16.52591232",
       "ECCENTRICITY":"0.00616220",
       "INCLINATION":"97.6046",
       "RA_OF_ASC_NODE":"149.0698",
       "ARG_OF_PERICENTER":"291.4793",
       "MEAN_ANOMALY":"132.3378",
       "EPHEMERIS_TYPE":"0",
       "CLASSIFICATION_TYPE":"U",
       "NORAD_CAT_ID":"52154",
       "ELEMENT_SET_NO":"999",
       "REV_AT_EPOCH":"138",
       "BSTAR":"0.00017479000000",
       "MEAN_MOTION_DOT":"0.49357962",
       "MEAN_MOTION_DDOT":"0.0000030800000",
       "SEMIMAJOR_AXIS":"6510.658",
       "PERIOD":"87.136",
       "APOAPSIS":"172.643",
       "PERIAPSIS":"92.403",
       "OBJECT_TYPE":"ROCKET BODY",
       "RCS_SIZE":"LARGE",
       "COUNTRY_CODE":"PRC",
       "LAUNCH_DATE":"2022-03-30",
       "SITE":"JSC",
       "DECAY_DATE":"2022-04-07",
       "FILE":"3391884",
       "GP_ID":"200638949",
       "TLE_LINE0":"0 CZ-11 R\/B",
       "TLE_LINE1":"1 52154U 22032B   22097.85292227  .49357962  30800-5  17479-3 0  9995",
       "TLE_LINE2":"2 52154  97.6046 149.0698 0061622 291.4793 132.3378 16.52591232  1385"
    },
    {
       "CCSDS_OMM_VERS":"2.0",
       "COMMENT":"GENERATED VIA SPACE-TRACK.ORG API",
       "CREATION_DATE":"2022-10-14T17:56:19",
       "ORIGINATOR":"18 SPCS",
       "OBJECT_NAME":"DRAGON FREEDOM",
       "OBJECT_ID":"2022-042A",
       "CENTER_NAME":"EARTH",
       "REF_FRAME":"TEME",
       "TIME_SYSTEM":"UTC",
       "MEAN_ELEMENT_THEORY":"SGP4",
       "EPOCH":"2022-10-14T17:39:44.160192",
       "MEAN_MOTION":"15.53303268",
       "ECCENTRICITY":"0.00033140",
       "INCLINATION":"51.6415",
       "RA_OF_ASC_NODE":"104.3028",
       "ARG_OF_PERICENTER":"303.6303",
       "MEAN_ANOMALY":"178.2173",
       "EPHEMERIS_TYPE":"0",
       "CLASSIFICATION_TYPE":"U",
       "NORAD_CAT_ID":"52318",
       "ELEMENT_SET_NO":"999",
       "REV_AT_EPOCH":"2643",
       "BSTAR":"1.32250000000000",
       "MEAN_MOTION_DOT":"0.99999999",
       "MEAN_MOTION_DDOT":"0.0000000000000",
       "SEMIMAJOR_AXIS":"6785.226",
       "PERIOD":"92.706",
       "APOAPSIS":"409.340",
       "PERIAPSIS":"404.843",
       "OBJECT_TYPE":"PAYLOAD",
       "RCS_SIZE":"LARGE",
       "COUNTRY_CODE":"US",
       "LAUNCH_DATE":"2022-04-27",
       "SITE":"AFETR",
       "DECAY_DATE":"2022-10-14",
       "FILE":"3611945",
       "GP_ID":"215077977",
       "TLE_LINE0":"0 DRAGON FREEDOM",
       "TLE_LINE1":"1 52318U 22042A   22287.73592778  .99999999  00000-0  13225+1 0  9993",
       "TLE_LINE2":"2 52318  51.6415 104.3028 0003314 303.6303 178.2173 15.53303268 26430"
    }
 ]